HIMAWARI-8              
1 40267U 14060A   23258.54979796 -.00000276  00000+0  00000+0 0  9990
2 40267   0.0265 157.5399 0000876  60.7350 114.5540  1.00268085 32673
